OBJECT_NAME,OBJECT_ID,EPOCH,MEAN_MOTION,ECCENTRICITY,INCLINATION,RA_OF_ASC_NODE,ARG_OF_PERICENTER,MEAN_ANOMALY,EPHEMERIS_TYPE,CLASSIFICATION_TYPE,NORAD_CAT_ID,ELEMENT_SET_NO,REV_AT_EPOCH,BSTAR,MEAN_MOTION_DOT,MEAN_MOTION_DDOT
ONEWEB-0336,2021-083S,2026-07-17T13:51:22.379904,13.13468803,.00018289,87.8978,314.1795,91.8180,268.3158,0,U,49202,999,23490,-.80106213E-3,-.28E-5,0
ONEWEB-0337,2021-083T,2026-07-17T14:05:48.908832,13.13469623,.00020421,87.8978,314.1831,94.4607,265.6756,0,U,49203,999,23490,-.64039633E-3,-.221E-5,0
ONEWEB-0338,2021-083U,2026-07-17T11:53:16.713312,13.20771202,.00021589,87.9182,268.4073,106.6384,253.4986,0,U,49204,999,24081,.98486936E-4,.53E-6,0
ONEWEB-0339,2021-083V,2026-07-17T14:18:11.693952,13.13469946,.00021664,87.8975,314.1744,105.4864,254.6505,0,U,49205,999,23488,-.39783536E-3,-.133E-5,0
ONEWEB-0340,2021-083W,2026-07-17T15:15:39.183552,13.18687513,.00018691,87.9200,329.4017,94.1209,266.0137,0,U,49206,999,23398,.20178837E-3,.92E-6,0
ONEWEB-0341,2021-083X,2026-07-17T08:08:18.468096,13.18687551,.00022969,87.9193,329.4620,89.4838,270.6557,0,U,49207,999,23396,.45920287E-4,.31E-6,0
ONEWEB-0342,2021-083Y,2026-07-17T04:46:37.211520,13.20773113,.00021683,87.9185,268.4564,100.8656,259.2721,0,U,49208,999,24074,.13465082E-3,.68E-6,0
ONEWEB-0343,2021-083Z,2026-07-17T08:20:27.305664,13.18687643,.00022629,87.9193,329.4591,105.7400,254.3982,0,U,49209,999,23401,.60358015E-4,.37E-6,0
ONEWEB-0344,2021-083AA,2026-07-17T06:52:04.872000,13.13469628,.00022379,87.8978,314.2488,91.0147,269.1239,0,U,49210,999,23484,-.39771053E-3,-.132E-5,0
ONEWEB-0345,2021-083AB,2026-07-17T06:39:54.273600,13.13470145,.00022199,87.8987,314.2356,94.2287,265.9096,0,U,49211,999,23485,-.76690608E-3,-.267E-5,0
ONEWEB-0346,2021-083AC,2026-07-17T08:15:35.831808,13.18687388,.00014798,87.9190,329.4590,81.7462,278.3838,0,U,49212,999,23395,.51484541E-4,.33E-6,0
ONEWEB-0348,2021-083AD,2026-07-17T11:48:26.401536,13.20772530,.00020485,87.9187,268.4026,83.7477,276.3890,0,U,49213,999,24081,-.31273165E-4,0,0
ONEWEB-0350,2021-083AE,2026-07-17T07:06:54.520704,13.13472313,.00016912,87.8983,314.2367,133.0905,227.0366,0,U,49214,999,23488,.35773649E-3,.143E-5,0
ONEWEB-0351,2021-083AF,2026-07-17T04:22:10.995744,13.20770675,.00026936,87.9186,268.4631,102.2355,257.9080,0,U,49215,999,24073,-.1604396E-4,.6E-7,0
ONEWEB-0352,2021-083AG,2026-07-16T19:27:06.307488,13.13469083,.00023207,87.8979,314.3376,106.6444,253.4940,0,U,49216,999,23491,-.86466829E-3,-.303E-5,0
ONEWEB-0354,2021-083AH,2026-07-17T03:12:04.902048,13.20771523,.00021774,87.9187,268.4707,88.6394,271.4989,0,U,49217,999,24076,.14365741E-3,.71E-6,0
ONEWEB-0355,2021-083AJ,2026-07-17T07:07:54.616224,13.13468487,.00021504,87.8977,314.2414,99.7911,260.3461,0,U,49218,999,23485,.43638476E-3,.172E-5,0
ONEWEB-0357,2021-083AK,2026-07-17T03:07:13.415232,13.20770345,.00022785,87.9186,268.4657,100.7213,259.4177,0,U,49219,999,24076,.1236335E-3,.63E-6,0
ONEWEB-0332,2021-090A,2026-07-17T05:01:01.297056,13.14503486,.00020432,87.8965,283.7274,105.6082,254.5273,0,U,49279,999,23152,.12874544E-3,.61E-6,0
ONEWEB-0347,2021-090B,2026-07-17T02:52:40.895328,13.20770335,.00020546,87.9186,268.4758,106.7814,253.3545,0,U,49280,999,23499,.14215262E-3,.71E-6,0
ONEWEB-0349,2021-090C,2026-07-17T14:33:16.575840,13.20769402,.00020932,87.9184,268.3801,98.2033,261.9337,0,U,49281,999,23384,.26800185E-4,.24E-6,0
ONEWEB-0353,2021-090D,2026-07-17T12:08:02.707296,13.14503276,.00020377,87.8968,283.6646,107.2192,252.9161,0,U,49282,999,23156,-.1736154E-3,-.52E-6,0
ONEWEB-0356,2021-090E,2026-07-17T14:30:51.753024,13.20769848,.00012558,87.9181,268.3737,97.1533,262.9744,0,U,49283,999,23384,.30462308E-4,.25E-6,0
ONEWEB-0358,2021-090F,2026-07-17T04:28:25.169952,13.20772776,.00019842,87.9188,268.4642,93.8905,266.2456,0,U,49284,999,23451,-.97330262E-3,-.383E-5,0
ONEWEB-0359,2021-090G,2026-07-17T11:31:27.497568,13.20770614,.00021,87.9184,268.3983,90.9713,269.1661,0,U,49285,999,23453,.1276609E-3,.65E-6,0
ONEWEB-0360,2021-090H,2026-07-17T11:16:56.338464,13.20771397,.00021862,87.9186,268.4063,96.8771,263.2611,0,U,49286,999,23384,.1708795E-3,.82E-6,0
ONEWEB-0361,2021-090J,2026-07-17T14:28:25.405248,13.20772448,.00019992,87.9183,268.3787,94.8772,265.2590,0,U,49287,999,23431,.1089117E-3,.57E-6,0
ONEWEB-0362,2021-090K,2026-07-16T19:43:05.947968,13.19725966,.0002303,87.9187,299.0767,101.0830,259.0562,0,U,49288,999,23082,-.16352946E-3,-.53E-6,0
ONEWEB-0363,2021-090L,2026-07-17T03:55:42.924000,13.20772170,.00017581,87.9184,268.4663,95.3421,264.7913,0,U,49289,999,23426,.37773762E-4,.28E-6,0
ONEWEB-0364,2021-090M,2026-07-17T04:51:28.037376,13.20770163,.00020836,87.9184,268.4659,97.9878,262.1492,0,U,49290,999,23540,.69412709E-4,.41E-6,0
