ONEWEB-0336             
1 49202U 21083S   26198.57734236 -.00000280  00000+0 -80106-3 0  9993
2 49202  87.8978 314.1795 0001828  91.8180 268.3158 13.13468803234900
ONEWEB-0337             
1 49203U 21083T   26198.58737163 -.00000221  00000+0 -64040-3 0  9991
2 49203  87.8978 314.1831 0002042  94.4607 265.6756 13.13469623234909
ONEWEB-0338             
1 49204U 21083U   26198.49533233  .00000053  00000+0  98487-4 0  9998
2 49204  87.9182 268.4073 0002158 106.6384 253.4986 13.20771202240817
ONEWEB-0339             
1 49205U 21083V   26198.59596868 -.00000133  00000+0 -39784-3 0  9998
2 49205  87.8975 314.1744 0002166 105.4864 254.6505 13.13469946234881
ONEWEB-0340             
1 49206U 21083W   26198.63587018  .00000092  00000+0  20179-3 0  9991
2 49206  87.9200 329.4017 0001869  94.1209 266.0137 13.18687513233987
ONEWEB-0341             
1 49207U 21083X   26198.33910264  .00000031  00000+0  45920-4 0  9997
2 49207  87.9193 329.4620 0002296  89.4838 270.6557 13.18687551233966
ONEWEB-0342             
1 49208U 21083Y   26198.19904180  .00000068  00000+0  13465-3 0  9990
2 49208  87.9185 268.4564 0002168 100.8656 259.2721 13.20773113240744
ONEWEB-0343             
1 49209U 21083Z   26198.34753826  .00000037  00000+0  60358-4 0  9997
2 49209  87.9193 329.4591 0002262 105.7400 254.3982 13.18687643234015
ONEWEB-0344             
1 49210U 21083AA  26198.28616750 -.00000132  00000+0 -39771-3 0  9998
2 49210  87.8978 314.2488 0002237  91.0147 269.1239 13.13469628234847
ONEWEB-0345             
1 49211U 21083AB  26198.27771150 -.00000267  00000+0 -76691-3 0  9995
2 49211  87.8987 314.2356 0002219  94.2287 265.9096 13.13470145234854
ONEWEB-0346             
1 49212U 21083AC  26198.34416472  .00000033  00000+0  51485-4 0  9991
2 49212  87.9190 329.4590 0001479  81.7462 278.3838 13.18687388233959
ONEWEB-0348             
1 49213U 21083AD  26198.49197224  .00000000  00000+0 -31273-4 0  9997
2 49213  87.9187 268.4026 0002048  83.7477 276.3890 13.20772530240819
ONEWEB-0350             
1 49214U 21083AE  26198.29646436  .00000143  00000+0  35774-3 0  9996
2 49214  87.8983 314.2367 0001691 133.0905 227.0366 13.13472313234888
ONEWEB-0351             
1 49215U 21083AF  26198.18207171  .00000006  00000+0 -16044-4 0  9993
2 49215  87.9186 268.4631 0002693 102.2355 257.9080 13.20770675240735
ONEWEB-0352             
1 49216U 21083AG  26197.81048967 -.00000303  00000+0 -86467-3 0  9995
2 49216  87.8979 314.3376 0002320 106.6444 253.4940 13.13469083234915
ONEWEB-0354             
1 49217U 21083AH  26198.13339007  .00000071  00000+0  14366-3 0  9999
2 49217  87.9187 268.4707 0002177  88.6394 271.4989 13.20771523240764
ONEWEB-0355             
1 49218U 21083AJ  26198.29715991  .00000172  00000+0  43638-3 0  9993
2 49218  87.8977 314.2414 0002150  99.7911 260.3461 13.13468487234854
ONEWEB-0357             
1 49219U 21083AK  26198.13001638  .00000063  00000+0  12363-3 0  9993
2 49219  87.9186 268.4657 0002278 100.7213 259.4177 13.20770345240763
ONEWEB-0332             
1 49279U 21090A   26198.20904279  .00000061  00000+0  12875-3 0  9994
2 49279  87.8965 283.7274 0002043 105.6082 254.5273 13.14503486231526
ONEWEB-0347             
1 49280U 21090B   26198.11991777  .00000071  00000+0  14215-3 0  9996
2 49280  87.9186 268.4758 0002054 106.7814 253.3545 13.20770335234997
ONEWEB-0349             
1 49281U 21090C   26198.60644185  .00000024  00000+0  26800-4 0  9991
2 49281  87.9184 268.3801 0002093  98.2033 261.9337 13.20769402233845
ONEWEB-0353             
1 49282U 21090D   26198.50558689 -.00000052  00000+0 -17362-3 0  9999
2 49282  87.8968 283.6646 0002037 107.2192 252.9161 13.14503276231567
ONEWEB-0356             
1 49283U 21090E   26198.60476566  .00000025  00000+0  30462-4 0  9999
2 49283  87.9181 268.3737 0001255  97.1533 262.9744 13.20769848233841
ONEWEB-0358             
1 49284U 21090F   26198.18640243 -.00000383  00000+0 -97330-3 0  9993
2 49284  87.9188 268.4642 0001984  93.8905 266.2456 13.20772776234516
ONEWEB-0359             
1 49285U 21090G   26198.48017937  .00000065  00000+0  12766-3 0  9990
2 49285  87.9184 268.3983 0002100  90.9713 269.1661 13.20770614234537
ONEWEB-0360             
1 49286U 21090H   26198.47009651  .00000082  00000+0  17088-3 0  9995
2 49286  87.9186 268.4063 0002186  96.8771 263.2611 13.20771397233845
ONEWEB-0361             
1 49287U 21090J   26198.60307182  .00000057  00000+0  10891-3 0  9998
2 49287  87.9183 268.3787 0001999  94.8772 265.2590 13.20772448234314
ONEWEB-0362             
1 49288U 21090K   26197.82159662 -.00000053  00000+0 -16353-3 0  9997
2 49288  87.9187 299.0767 0002303 101.0830 259.0562 13.19725966230827
ONEWEB-0363             
1 49289U 21090L   26198.16369125  .00000028  00000+0  37774-4 0  9994
2 49289  87.9184 268.4663 0001758  95.3421 264.7913 13.20772170234260
ONEWEB-0364             
1 49290U 21090M   26198.20240784  .00000041  00000+0  69413-4 0  9990
2 49290  87.9184 268.4659 0002083  97.9878 262.1492 13.20770163235404
